[
    {
        "Altitude(m)": 607886.6775816323,
        "Argument of Periapsis(deg)": 0.0,
        "Eccentricity": 0.0,
        "Inclination(deg)": 60.0,
        "Latitude(deg)": 40.99840609373503,
        "Longitude(deg)": -35.02712216014182,
        "Mean Anomaly(deg)": 49.09089999999999,
        "RAAN(deg)": 35.0,
        "Satellite Name": "Test1 157",
        "Satellite Number": 157,
        "Semi-Major Axis(m)": 6980739.136638005,
        "Time(s)": 0
    },
    {
        "Altitude(m)": 607987.5919773743,
        "Argument of Periapsis(deg)": 0.00010418945913296404,
        "Eccentricity": 0.0,
        "Inclination(deg)": 60.0,
        "Latitude(deg)": 41.463497211885496,
        "Longitude(deg)": -34.522896253810885,
        "Mean Anomaly(deg)": 49.71100614546182,
        "RAAN(deg)": 34.99957995086025,
        "Satellite Name": "Test1 157",
        "Satellite Number": 157,
        "Semi-Major Axis(m)": 6980739.136638005,
        "Time(s)": 10
    },
    {
        "Altitude(m)": 608088.5560041034,
        "Argument of Periapsis(deg)": 0.0002083789182659281,
        "Eccentricity": 0.0,
        "Inclination(deg)": 60.0,
        "Latitude(deg)": 41.925924175209715,
        "Longitude(deg)": -34.010847358637264,
        "Mean Anomaly(deg)": 50.33111229092366,
        "RAAN(deg)": 34.99915990172051,
        "Satellite Name": "Test1 157",
        "Satellite Number": 157,
        "Semi-Major Axis(m)": 6980739.136638005,
        "Time(s)": 20
    },
    {
        "Altitude(m)": 608189.5064403815,
        "Argument of Periapsis(deg)": 0.00031256837739889213,
        "Eccentricity": 0.0,
        "Inclination(deg)": 60.0,
        "Latitude(deg)": 42.385606234578376,
        "Longitude(deg)": -33.490779433302784,
        "Mean Anomaly(deg)": 50.951218436385474,
        "RAAN(deg)": 34.99873985258077,
        "Satellite Name": "Test1 157",
        "Satellite Number": 157,
        "Semi-Major Axis(m)": 6980739.136638005,
        "Time(s)": 30
    },
    {
        "Altitude(m)": 608290.3802914897,
        "Argument of Periapsis(deg)": 0.0004167578365318562,
        "Eccentricity": 0.0,
        "Inclination(deg)": 60.0,
        "Latitude(deg)": 42.84246009382864,
        "Longitude(deg)": -32.96249256970392,
        "Mean Anomaly(deg)": 51.57132458184732,
        "RAAN(deg)": 34.998319803441035,
        "Satellite Name": "Test1 157",
        "Satellite Number": 157,
        "Semi-Major Axis(m)": 6980739.136638005,
        "Time(s)": 40
    },
    {
        "Altitude(m)": 608391.114820679,
        "Argument of Periapsis(deg)": 0.0005209472956648203,
        "Eccentricity": 0.0,
        "Inclination(deg)": 60.0,
        "Latitude(deg)": 43.29639983037505,
        "Longitude(deg)": -32.42578408796484,
        "Mean Anomaly(deg)": 52.19143072730914,
        "RAAN(deg)": 34.99789975430128,
        "Satellite Name": "Test1 157",
        "Satellite Number": 157,
        "Semi-Major Axis(m)": 6980739.136638005,
        "Time(s)": 50
    },
    {
        "Altitude(m)": 608491.6475802566,
        "Argument of Periapsis(deg)": 0.0006251367547977843,
        "Eccentricity": 0.0,
        "Inclination(deg)": 60.0,
        "Latitude(deg)": 43.74733681511421,
        "Longitude(deg)": -31.88044813834495,
        "Mean Anomaly(deg)": 52.81153687277098,
        "RAAN(deg)": 34.99747970516154,
        "Satellite Name": "Test1 157",
        "Satellite Number": 157,
        "Semi-Major Axis(m)": 6980739.136638005,
        "Time(s)": 60
    },
    {
        "Altitude(m)": 608591.9164424586,
        "Argument of Periapsis(deg)": 0.0007293262139307483,
        "Eccentricity": 0.0,
        "Inclination(deg)": 60.0,
        "Latitude(deg)": 44.19517963185169,
        "Longitude(deg)": -31.326275324801557,
        "Mean Anomaly(deg)": 53.431643018232805,
        "RAAN(deg)": 34.9970596560218,
        "Satellite Name": "Test1 157",
        "Satellite Number": 157,
        "Semi-Major Axis(m)": 6980739.136638005,
        "Time(s)": 70
    },
    {
        "Altitude(m)": 608691.8596301611,
        "Argument of Periapsis(deg)": 0.0008335156730637124,
        "Eccentricity": 0.0,
        "Inclination(deg)": 60.0,
        "Latitude(deg)": 44.63983399651412,
        "Longitude(deg)": -30.76305386509086,
        "Mean Anomaly(deg)": 54.05174916369463,
        "RAAN(deg)": 34.996639606882056,
        "Satellite Name": "Test1 157",
        "Satellite Number": 157,
        "Semi-Major Axis(m)": 6980739.136638005,
        "Time(s)": 80
    },
    {
        "Altitude(m)": 608791.4157473206,
        "Argument of Periapsis(deg)": 0.0009377051321966765,
        "Eccentricity": 0.0,
        "Inclination(deg)": 60.0,
        "Latitude(deg)": 45.08120267645313,
        "Longitude(deg)": -30.190569263798892,
        "Mean Anomaly(deg)": 54.67185530915648,
        "RAAN(deg)": 34.996219557742315,
        "Satellite Name": "Test1 157",
        "Satellite Number": 157,
        "Semi-Major Axis(m)": 6980739.136638005,
        "Time(s)": 90
    },
    {
        "Altitude(m)": 608890.5238092348,
        "Argument of Periapsis(deg)": 0.0010418945913296407,
        "Eccentricity": 0.0,
        "Inclination(deg)": 60.0,
        "Latitude(deg)": 45.519185410179745,
        "Longitude(deg)": -29.60860401343248,
        "Mean Anomaly(deg)": 55.291961454618296,
        "RAAN(deg)": 34.99579950860257,
        "Satellite Name": "Test1 157",
        "Satellite Number": 157,
        "Semi-Major Axis(m)": 6980739.136638005,
        "Time(s)": 100
    },
    {
        "Altitude(m)": 608989.1232725193,
        "Argument of Periapsis(deg)": 0.0011460840504626045,
        "Eccentricity": 0.0,
        "Inclination(deg)": 60.0,
        "Latitude(deg)": 45.95367882791417,
        "Longitude(deg)": -29.01693883882244,
        "Mean Anomaly(deg)": 55.91206760008013,
        "RAAN(deg)": 34.99537945946283,
        "Satellite Name": "Test1 157",
        "Satellite Number": 157,
        "Semi-Major Axis(m)": 6980739.136638005,
        "Time(s)": 110
    },
    {
        "Altitude(m)": 609087.1540648483,
        "Argument of Periapsis(deg)": 0.0012502735095955685,
        "Eccentricity": 0.0,
        "Inclination(deg)": 60.0,
        "Latitude(deg)": 46.38457637338649,
        "Longitude(deg)": -28.415352461594296,
        "Mean Anomaly(deg)": 56.53217374554196,
        "RAAN(deg)": 34.99495941032309,
        "Satellite Name": "Test1 157",
        "Satellite Number": 157,
        "Semi-Major Axis(m)": 6980739.136638005,
        "Time(s)": 120
    },
    {
        "Altitude(m)": 609184.5566144214,
        "Argument of Periapsis(deg)": 0.0013544629687285324,
        "Eccentricity": 0.0,
        "Inclination(deg)": 60.0,
        "Latitude(deg)": 46.81176822737081,
        "Longitude(deg)": -27.80362140018952,
        "Mean Anomaly(deg)": 57.152279891003786,
        "RAAN(deg)": 34.99453936118335,
        "Satellite Name": "Test1 157",
        "Satellite Number": 157,
        "Semi-Major Axis(m)": 6980739.136638005,
        "Time(s)": 130
    },
    {
        "Altitude(m)": 609281.2718791255,
        "Argument of Periapsis(deg)": 0.0014586524278614966,
        "Eccentricity": 0.0,
        "Inclination(deg)": 60.0,
        "Latitude(deg)": 47.23514123348743,
        "Longitude(deg)": -27.181521321024572,
        "Mean Anomaly(deg)": 57.77238603646563,
        "RAAN(deg)": 34.99411931204361,
        "Satellite Name": "Test1 157",
        "Satellite Number": 157,
        "Semi-Major Axis(m)": 6980739.136638005,
        "Time(s)": 140
    },
    {
        "Altitude(m)": 609377.2413754255,
        "Argument of Periapsis(deg)": 0.0015628418869944607,
        "Eccentricity": 0.0,
        "Inclination(deg)": 60.0,
        "Latitude(deg)": 47.65457882687384,
        "Longitude(deg)": -26.548826917852868,
        "Mean Anomaly(deg)": 58.392492181927445,
        "RAAN(deg)": 34.99369926290385,
        "Satellite Name": "Test1 157",
        "Satellite Number": 157,
        "Semi-Major Axis(m)": 6980739.136638005,
        "Time(s)": 150
    },
    {
        "Altitude(m)": 609472.4072069292,
        "Argument of Periapsis(deg)": 0.0016670313461274247,
        "Eccentricity": 0.0,
        "Inclination(deg)": 60.0,
        "Latitude(deg)": 48.06996096638034,
        "Longitude(deg)": -25.905311835087723,
        "Mean Anomaly(deg)": 59.01259832738927,
        "RAAN(deg)": 34.99327921376411,
        "Satellite Name": "Test1 157",
        "Satellite Number": 157,
        "Semi-Major Axis(m)": 6980739.136638005,
        "Time(s)": 160
    },
    {
        "Altitude(m)": 609566.7120926318,
        "Argument of Periapsis(deg)": 0.0017712208052603888,
        "Eccentricity": 0.0,
        "Inclination(deg)": 60.0,
        "Latitude(deg)": 48.481164071010596,
        "Longitude(deg)": -25.250750150902707,
        "Mean Anomaly(deg)": 59.63270447285112,
        "RAAN(deg)": 34.99285916462437,
        "Satellite Name": "Test1 157",
        "Satellite Number": 157,
        "Semi-Major Axis(m)": 6980739.136638005,
        "Time(s)": 170
    },
    {
        "Altitude(m)": 609660.0993948204,
        "Argument of Periapsis(deg)": 0.001875410264393353,
        "Eccentricity": 0.0,
        "Inclination(deg)": 60.0,
        "Latitude(deg)": 48.88806096140372,
        "Longitude(deg)": -24.58491639734771,
        "Mean Anomaly(deg)": 60.25281061831294,
        "RAAN(deg)": 34.99243911548463,
        "Satellite Name": "Test1 157",
        "Satellite Number": 157,
        "Semi-Major Axis(m)": 6980739.136638005,
        "Time(s)": 180
    },
    {
        "Altitude(m)": 609752.5131466412,
        "Argument of Periapsis(deg)": 0.0019795997235263173,
        "Eccentricity": 0.0,
        "Inclination(deg)": 60.0,
        "Latitude(deg)": 49.2905208072198,
        "Longitude(deg)": -23.90758563333777,
        "Mean Anomaly(deg)": 60.87291676377477,
        "RAAN(deg)": 34.99201906634489,
        "Satellite Name": "Test1 157",
        "Satellite Number": 157,
        "Semi-Major Axis(m)": 6980739.136638005,
        "Time(s)": 190
    }
]